[{"OBJECT_NAME":"STARLINK-4078","OBJECT_ID":"2022-053AK","EPOCH":"2026-03-09T10:48:38.970720","MEAN_MOTION":15.53241014,"ECCENTRICITY":0.00039174,"INCLINATION":53.211,"RA_OF_ASC_NODE":84.833,"ARG_OF_PERICENTER":51.767,"MEAN_ANOMALY":308.3693,"EPHEMERIS_TYPE":0,"CLASSIFICATION_TYPE":"U","NORAD_CAT_ID":52689,"ELEMENT_SET_NO":999,"REV_AT_EPOCH":21197,"BSTAR":0.0012270783,"MEAN_MOTION_DOT":0.00078867,"MEAN_MOTION_DDOT":0},{"OBJECT_NAME":"STARLINK-36439","OBJECT_ID":"2026-020H","EPOCH":"2026-03-09T22:00:01.999584","MEAN_MOTION":15.67069217,"ECCENTRICITY":0.00015384,"INCLINATION":42.9996,"RA_OF_ASC_NODE":140.7811,"ARG_OF_PERICENTER":271.2276,"MEAN_ANOMALY":33.9897,"EPHEMERIS_TYPE":0,"CLASSIFICATION_TYPE":"U","NORAD_CAT_ID":67624,"ELEMENT_SET_NO":999,"REV_AT_EPOCH":604,"BSTAR":-0.020229594,"MEAN_MOTION_DOT":-0.01960974,"MEAN_MOTION_DDOT":0}]
